{"type":"FeatureCollection", "features": [
{"type":"Feature","geometry":{"type":"Polygon","coordinates":[[[86.9065,26.488],[86.9323,26.4893],[86.9351,26.5164],[86.9775,26.5197],[87.0177,26.5318],[87.0448,26.568],[87.0471,26.587],[87.0742,26.5855],[87.0751,26.5416],[87.0843,26.5122],[87.094,26.45],[87.1415,26.4146],[87.1649,26.4037],[87.1884,26.4139],[87.2491,26.414],[87.2686,26.4053],[87.2684,26.3736],[87.3159,26.3673],[87.3435,26.3474],[87.3608,26.3607],[87.3589,26.3879],[87.391,26.4187],[87.4303,26.4221],[87.4691,26.4401],[87.5189,26.4306],[87.55,26.4182],[87.5553,26.4054],[87.59,26.3925],[87.6544,26.3932],[87.6528,26.4055],[87.6809,26.4155],[87.6802,26.4351],[87.7137,26.427],[87.7362,26.4075],[87.7672,26.41],[87.7769,26.4403],[87.796,26.4683],[87.8512,26.4362],[87.861,26.4636],[87.9026,26.4771],[87.9254,26.4466],[87.934,26.418],[87.9683,26.3969],[87.9942,26.3922],[87.9945,26.3722],[88.0094,26.3608],[88.0303,26.3689],[88.0349,26.3881],[88.0583,26.4009],[88.0985,26.4398],[88.0945,26.4622],[88.1093,26.4765],[88.0993,26.517],[88.1161,26.5595],[88.1414,26.6059],[88.1446,26.6255],[88.1657,26.6457],[88.1697,26.6993],[88.1846,26.7192],[88.1906,26.7714],[88.1702,26.8374],[88.1749,26.8683],[88.139,26.8984],[88.1486,26.9207],[88.1231,26.9503],[88.1332,26.9803],[88.1018,27.0034],[88.0858,27.0283],[88.0402,27.0363],[87.9938,27.1305],[88.0096,27.1429],[88.0218,27.2356],[88.0328,27.2546],[88.0343,27.2859],[88.0551,27.3242],[88.0691,27.336],[88.0444,27.3699],[88.0532,27.4127],[88.0812,27.4318],[88.0697,27.4576],[88.0466,27.4782],[88.0679,27.5293],[88.0635,27.5398],[88.0877,27.5899],[88.1163,27.6104],[88.1225,27.6444],[88.1467,27.6647],[88.1574,27.6904],[88.1501,27.7027],[88.1611,27.7406],[88.1812,27.7468],[88.1846,27.7762],[88.2,27.7909],[88.1878,27.8105],[88.2039,27.8372],[88.1812,27.8564],[88.1377,27.8814],[88.1146,27.8681],[88.0936,27.8712],[88.0858,27.8956],[88.0672,27.8861],[88.0299,27.9052],[87.9859,27.8874],[87.9587,27.9086],[87.9332,27.9178],[87.8685,27.9106],[87.8618,27.9378],[87.8367,27.9514],[87.8062,27.9084],[87.7885,27.9001],[87.7567,27.8365],[87.726,27.8052],[87.6897,27.8121],[87.668,27.8066],[87.6615,27.8364],[87.6351,27.8324],[87.6135,27.8106],[87.5937,27.8318],[87.5814,27.8618],[87.5547,27.8649],[87.5468,27.8487],[87.4822,27.8403],[87.4523,27.8221],[87.4217,27.8603],[87.3748,27.8441],[87.3632,27.8287],[87.3202,27.8263],[87.3066,27.8429],[87.2677,27.8506],[87.2313,27.8258],[87.1957,27.8197],[87.1583,27.8249],[87.1184,27.8401],[87.1097,27.8747],[87.0908,27.8832],[87.0811,27.9149],[87.0559,27.9264],[87.0416,27.9502],[86.953,27.9565],[86.9356,27.9774],[86.8924,27.9967],[86.8565,28.0279],[86.8383,28.0151],[86.7926,28.0187],[86.7754,28.0378],[86.7496,28.0454],[86.7556,28.0647],[86.7407,28.1035],[86.6915,28.1084],[86.6641,28.0957],[86.6604,28.0809],[86.6372,28.0705],[86.6108,28.0758],[86.6049,28.1017],[86.5768,28.1128],[86.5513,28.0505],[86.5389,28.0506],[86.5235,28.0186],[86.5153,27.9845],[86.518,27.9564],[86.5262,27.9396],[86.5502,27.9302],[86.5558,27.9116],[86.5565,27.8569],[86.5429,27.8174],[86.5695,27.8037],[86.5653,27.7491],[86.5534,27.7106],[86.5427,27.7013],[86.5405,27.67],[86.5094,27.6399],[86.4949,27.6135],[86.4721,27.6168],[86.4372,27.61],[86.4102,27.5842],[86.3787,27.5678],[86.3573,27.5246],[86.3356,27.5106],[86.2945,27.4703],[86.2665,27.4562],[86.2582,27.4353],[86.2303,27.3979],[86.2181,27.3336],[86.2403,27.3022],[86.2379,27.2862],[86.2068,27.2494],[86.2315,27.2371],[86.2579,27.2531],[86.3114,27.233],[86.3434,27.2287],[86.3424,27.2099],[86.3823,27.1922],[86.3867,27.175],[86.3706,27.1406],[86.3434,27.1408],[86.3269,27.1096],[86.3582,27.1034],[86.3607,27.0837],[86.3493,27.0642],[86.366,27.053],[86.3765,27.0226],[86.3669,26.9786],[86.3554,26.9643],[86.3189,26.9634],[86.2836,26.9468],[86.262,26.9188],[86.2263,26.8925],[86.2492,26.8635],[86.2736,26.8822],[86.301,26.8855],[86.3677,26.8721],[86.3851,26.9079],[86.4058,26.9095],[86.4593,26.8871],[86.4807,26.8873],[86.4841,26.8695],[86.507,26.8559],[86.5232,26.8342],[86.557,26.8303],[86.541,26.7827],[86.56,26.7899],[86.5796,26.7754],[86.5557,26.7468],[86.5763,26.7392],[86.5857,26.7013],[86.63,26.69],[86.6942,26.6899],[86.7082,26.7064],[86.7408,26.7115],[86.7661,26.6945],[86.7973,26.7101],[86.8378,26.7108],[86.8509,26.6914],[86.8737,26.7128],[86.8874,26.7117],[86.913,26.7389],[86.9663,26.7356],[86.9862,26.7123],[87.0155,26.7004],[87.0158,26.6705],[86.9936,26.6492],[86.9813,26.6249],[86.9919,26.6056],[86.9949,26.572],[86.9534,26.5369],[86.9357,26.5332],[86.9065,26.488]]]},"properties":{"OBJECTID":1,"PROVINCE":1,"PR_NAME":"Province No 1"}},
{"type":"Feature","geometry":{"type":"Polygon","coordinates":[[[85.2726,27.2285],[85.2538,27.2447],[85.2047,27.25],[85.1951,27.2448],[85.1582,27.2618],[85.1292,27.2922],[85.119,27.3176],[85.0971,27.3322],[85.0893,27.3607],[85.059,27.3654],[85.0067,27.3526],[85.0014,27.3651],[84.9514,27.3618],[84.9236,27.3705],[84.881,27.3958],[84.8539,27.3985],[84.8463,27.4118],[84.8177,27.4187],[84.7931,27.4375],[84.7513,27.4373],[84.7207,27.431],[84.6488,27.4291],[84.6303,27.4506],[84.5598,27.4581],[84.5412,27.3851],[84.5062,27.3809],[84.488,27.3583],[84.5672,27.3473],[84.6249,27.3353],[84.6552,27.2889],[84.6874,27.2262],[84.6814,27.1854],[84.6857,27.1434],[84.6722,27.1103],[84.6776,27.1012],[84.6493,27.0756],[84.645,27.0462],[84.7036,27.0268],[84.7588,27.0026],[84.7755,27.0174],[84.796,26.9957],[84.8189,27.0205],[84.8569,27.008],[84.8669,26.9839],[84.9121,26.9677],[84.9648,26.96],[84.9805,26.94],[84.9739,26.9153],[85.0017,26.9119],[85.0075,26.8944],[85.0311,26.8746],[85.0307,26.8538],[85.0596,26.8489],[85.0868,26.8547],[85.1134,26.8722],[85.1921,26.8698],[85.1934,26.831],[85.179,26.8094],[85.1997,26.7693],[85.214,26.7576],[85.2366,26.7623],[85.2625,26.7549],[85.3092,26.7518],[85.3366,26.7412],[85.3575,26.76],[85.3734,26.7584],[85.41,26.791],[85.4539,26.7812],[85.4978,26.797],[85.5447,26.8373],[85.5903,26.8485],[85.6257,26.8733],[85.6446,26.853],[85.6817,26.8434],[85.723,26.8203],[85.7367,26.7956],[85.7268,26.7029],[85.7277,26.6703],[85.7506,26.6386],[85.8037,26.624],[85.8198,26.6025],[85.8533,26.6082],[85.8624,26.5699],[85.9176,26.6082],[85.9579,26.6306],[85.9587,26.6487],[85.9784,26.6579],[86.0121,26.6536],[86.0293,26.6664],[86.1217,26.6297],[86.141,26.6285],[86.1574,26.6096],[86.1739,26.6168],[86.198,26.5941],[86.2367,26.5931],[86.2556,26.6145],[86.2952,26.613],[86.3357,26.6186],[86.3433,26.6057],[86.3984,26.5932],[86.3983,26.5844],[86.459,26.5673],[86.4997,26.542],[86.5442,26.5382],[86.5727,26.4962],[86.6283,26.4806],[86.642,26.4632],[86.6985,26.4485],[86.7027,26.4369],[86.7431,26.4242],[86.7687,26.459],[86.8358,26.4387],[86.8627,26.456],[86.8976,26.4668],[86.9065,26.488],[86.9357,26.5332],[86.9534,26.5369],[86.9949,26.572],[86.9919,26.6056],[86.9813,26.6249],[86.9936,26.6492],[87.0158,26.6705],[87.0155,26.7004],[86.9862,26.7123],[86.9663,26.7356],[86.913,26.7389],[86.8874,26.7117],[86.8737,26.7128],[86.8509,26.6914],[86.8378,26.7108],[86.7973,26.7101],[86.7661,26.6945],[86.7408,26.7115],[86.7082,26.7064],[86.6942,26.6899],[86.63,26.69],[86.5857,26.7013],[86.5763,26.7392],[86.5557,26.7468],[86.5796,26.7754],[86.56,26.7899],[86.541,26.7827],[86.557,26.8303],[86.5232,26.8342],[86.507,26.8559],[86.4841,26.8695],[86.4807,26.8873],[86.4593,26.8871],[86.4058,26.9095],[86.3851,26.9079],[86.3677,26.8721],[86.301,26.8855],[86.2736,26.8822],[86.2492,26.8635],[86.2263,26.8925],[86.262,26.9188],[86.2576,26.9322],[86.1936,26.9783],[86.0972,27.0178],[86.0148,27.0184],[85.994,27.0245],[85.9721,27.0536],[85.9645,27.0791],[85.9465,27.0918],[85.9405,27.1211],[85.8851,27.146],[85.8643,27.1271],[85.8168,27.1607],[85.7707,27.1821],[85.7278,27.1946],[85.7007,27.1858],[85.644,27.1418],[85.6306,27.1371],[85.5398,27.1483],[85.5033,27.1432],[85.4885,27.1641],[85.4552,27.1681],[85.4504,27.1865],[85.35,27.222],[85.2953,27.2326],[85.2735,27.2287],[85.2726,27.2285]]]},"properties":{"OBJECTID":2,"PROVINCE":2,"PR_NAME":"Province No 2"}},
{"type":"Feature","geometry":{"type":"Polygon","coordinates":[[[86.518,27.9564],[86.5001,27.957],[86.4689,27.9411],[86.4723,27.9298],[86.4449,27.9055],[86.4132,27.9063],[86.3837,27.9376],[86.34,27.9492],[86.3212,27.9476],[86.2912,27.9782],[86.2398,27.9728],[86.2291,27.9807],[86.2215,28.0368],[86.2066,28.0834],[86.2249,28.0955],[86.2206,28.1146],[86.1996,28.138],[86.1797,28.1426],[86.1347,28.1164],[86.1202,28.0912],[86.0854,28.0911],[86.0928,28.033],[86.0819,28.0218],[86.1017,27.9927],[86.1263,27.9274],[86.0928,27.9198],[86.0672,27.8995],[86.0054,27.9111],[85.9506,27.9418],[85.9806,27.9877],[85.9763,28.001],[85.9382,28.0239],[85.9037,28.0532],[85.9004,28.1089],[85.8725,28.1235],[85.8747,28.1427],[85.8321,28.1845],[85.7787,28.2084],[85.7506,28.2401],[85.7355,28.2908],[85.7396,28.3191],[85.7138,28.3861],[85.6861,28.3821],[85.6885,28.3468],[85.6688,28.3484],[85.656,28.3163],[85.663,28.3028],[85.6391,28.275],[85.611,28.2567],[85.5954,28.3083],[85.5645,28.3096],[85.5283,28.3282],[85.4603,28.3368],[85.4177,28.3269],[85.4147,28.3087],[85.3797,28.2785],[85.3505,28.2883],[85.3421,28.3037],[85.2952,28.2874],[85.257,28.2943],[85.2437,28.3176],[85.2063,28.3398],[85.1845,28.3243],[85.1691,28.3314],[85.123,28.3356],[85.1102,28.3464],[85.0828,28.3457],[85.0489,28.3257],[85.0292,28.2613],[85.003,28.2522],[84.9643,28.2125],[84.9756,28.1889],[84.9663,28.1773],[84.9594,28.127],[84.931,28.1261],[84.9185,28.1025],[84.8957,28.1012],[84.8716,28.1203],[84.8466,28.1165],[84.8207,28.0478],[84.8135,28.0027],[84.793,27.998],[84.7713,27.9671],[84.7487,27.9604],[84.7353,27.9274],[84.7389,27.891],[84.7659,27.8599],[84.7759,27.824],[84.734,27.7955],[84.6872,27.8101],[84.6635,27.8285],[84.6629,27.8488],[84.6361,27.8622],[84.6295,27.877],[84.5921,27.8795],[84.5609,27.8577],[84.5573,27.8356],[84.5272,27.8332],[84.5149,27.8153],[84.4479,27.8229],[84.4321,27.7905],[84.4596,27.7753],[84.4408,27.7439],[84.4242,27.7411],[84.4301,27.7035],[84.3826,27.6814],[84.3508,27.7029],[84.2936,27.6678],[84.208,27.6382],[84.1374,27.5843],[84.1094,27.5515],[84.0767,27.5593],[84.0478,27.5539],[84.0386,27.5385],[83.9713,27.5503],[83.95,27.5399],[83.9224,27.5413],[83.9241,27.5179],[83.967,27.523],[83.9686,27.506],[83.9432,27.4937],[83.9467,27.4656],[83.9333,27.4494],[83.9485,27.441],[83.9941,27.4441],[84.0179,27.4346],[84.0539,27.4424],[84.0703,27.4761],[84.0977,27.4897],[84.1068,27.5204],[84.1259,27.5109],[84.153,27.5167],[84.1475,27.4929],[84.1737,27.4755],[84.2083,27.4692],[84.2538,27.453],[84.2747,27.4286],[84.2777,27.4009],[84.3502,27.374],[84.3771,27.3755],[84.4462,27.3682],[84.4718,27.355],[84.488,27.3583],[84.5062,27.3809],[84.5412,27.3851],[84.5598,27.4581],[84.6303,27.4506],[84.6488,27.4291],[84.7207,27.431],[84.7513,27.4373],[84.7931,27.4375],[84.8177,27.4187],[84.8463,27.4118],[84.8539,27.3985],[84.881,27.3958],[84.9236,27.3705],[84.9514,27.3618],[85.0014,27.3651],[85.0067,27.3526],[85.059,27.3654],[85.0893,27.3607],[85.0971,27.3322],[85.119,27.3176],[85.1292,27.2922],[85.1582,27.2618],[85.1951,27.2448],[85.2047,27.25],[85.2538,27.2447],[85.2726,27.2285],[85.2735,27.2287],[85.2953,27.2326],[85.35,27.222],[85.4504,27.1865],[85.4552,27.1681],[85.4885,27.1641],[85.5033,27.1432],[85.5398,27.1483],[85.6306,27.1371],[85.644,27.1418],[85.7007,27.1858],[85.7278,27.1946],[85.7707,27.1821],[85.8168,27.1607],[85.8643,27.1271],[85.8851,27.146],[85.9405,27.1211],[85.9465,27.0918],[85.9645,27.0791],[85.9721,27.0536],[85.994,27.0245],[86.0148,27.0184],[86.0972,27.0178],[86.1936,26.9783],[86.2576,26.9322],[86.262,26.9188],[86.2836,26.9468],[86.3189,26.9634],[86.3554,26.9643],[86.3669,26.9786],[86.3765,27.0226],[86.366,27.053],[86.3493,27.0642],[86.3607,27.0837],[86.3582,27.1034],[86.3269,27.1096],[86.3434,27.1408],[86.3706,27.1406],[86.3867,27.175],[86.3823,27.1922],[86.3424,27.2099],[86.3434,27.2287],[86.3114,27.233],[86.2579,27.2531],[86.2315,27.2371],[86.2068,27.2494],[86.2379,27.2862],[86.2403,27.3022],[86.2181,27.3336],[86.2303,27.3979],[86.2582,27.4353],[86.2665,27.4562],[86.2945,27.4703],[86.3356,27.5106],[86.3573,27.5246],[86.3787,27.5678],[86.4102,27.5842],[86.4372,27.61],[86.4721,27.6168],[86.4949,27.6135],[86.5094,27.6399],[86.5405,27.67],[86.5427,27.7013],[86.5534,27.7106],[86.5653,27.7491],[86.5695,27.8037],[86.5429,27.8174],[86.5565,27.8569],[86.5558,27.9116],[86.5502,27.9302],[86.5262,27.9396],[86.518,27.9564]]]},"properties":{"OBJECTID":3,"PROVINCE":3,"PR_NAME":"Bagmati Pradesh"}},
{"type":"Feature","geometry":{"type":"Polygon","coordinates":[[[84.243,29],[84.25,29.0372],[84.223,29.0535],[84.1918,29.0469],[84.1883,29.0807],[84.2038,29.1037],[84.2027,29.1244],[84.1784,29.1296],[84.166,29.194],[84.2019,29.2139],[84.2051,29.2366],[84.1559,29.2414],[84.1437,29.2362],[84.1145,29.2486],[84.1241,29.2731],[84.0879,29.2945],[84.0708,29.2853],[84.0445,29.3008],[84.0265,29.2887],[84.0031,29.3119],[83.967,29.331],[83.9506,29.317],[83.9069,29.3257],[83.8577,29.3087],[83.8512,29.298],[83.8148,29.302],[83.796,29.2734],[83.7993,29.25],[83.7697,29.2408],[83.7134,29.2445],[83.6863,29.2131],[83.6622,29.2039],[83.6595,29.1761],[83.6605,29.1754],[83.6609,29.1753],[83.6623,29.1747],[83.663,29.1743],[83.6642,29.1736],[83.6644,29.1735],[83.6645,29.1734],[83.665,29.1731],[83.6654,29.1727],[83.6656,29.1725],[83.666,29.1722],[83.6661,29.172],[83.6665,29.1716],[83.6666,29.1715],[83.6668,29.1712],[83.6677,29.1704],[83.668,29.17],[83.6682,29.1697],[83.6673,29.1683],[83.6664,29.1676],[83.6656,29.1669],[83.6655,29.1667],[83.6652,29.1664],[83.6646,29.1656],[83.6642,29.1651],[83.6641,29.1649],[83.6643,29.1646],[83.6644,29.1644],[83.6648,29.164],[83.6651,29.1635],[83.6652,29.1629],[83.6649,29.1613],[83.6648,29.1605],[83.6646,29.1601],[83.6645,29.1595],[83.6647,29.1588],[83.6649,29.1585],[83.6649,29.1582],[83.6649,29.1575],[83.6649,29.1567],[83.666,29.1554],[83.6663,29.1554],[83.6667,29.1554],[83.667,29.1552],[83.6677,29.155],[83.6685,29.1546],[83.6695,29.1544],[83.6699,29.1542],[83.6706,29.154],[83.6724,29.1535],[83.6739,29.1529],[83.6748,29.1524],[83.6754,29.152],[83.6756,29.1516],[83.6768,29.1502],[83.6773,29.1497],[83.6779,29.1489],[83.6781,29.1485],[83.6782,29.1469],[83.6777,29.1465],[83.6773,29.1453],[83.6776,29.1441],[83.6777,29.1435],[83.6778,29.143],[83.6779,29.1422],[83.6779,29.1414],[83.6778,29.1407],[83.6776,29.1387],[83.6771,29.1375],[83.677,29.137],[83.6774,29.1362],[83.6779,29.1358],[83.679,29.1352],[83.6793,29.1348],[83.6797,29.1342],[83.68,29.1337],[83.6803,29.1333],[83.6808,29.1328],[83.681,29.1323],[83.6814,29.1316],[83.6817,29.1308],[83.6817,29.1301],[83.6813,29.1291],[83.6814,29.1284],[83.6814,29.1281],[83.681,29.1272],[83.6809,29.1267],[83.6808,29.1258],[83.6809,29.1254],[83.6809,29.125],[83.6813,29.1244],[83.6818,29.124],[83.6818,29.1235],[83.6813,29.1235],[83.6801,29.1237],[83.6797,29.1237],[83.6793,29.1237],[83.6786,29.1238],[83.6776,29.1238],[83.6769,29.1237],[83.6761,29.1236],[83.6754,29.1234],[83.6751,29.1233],[83.6749,29.1233],[83.6727,29.1232],[83.6711,29.1232],[83.6697,29.1233],[83.6683,29.1235],[83.668,29.1237],[83.6673,29.1238],[83.6667,29.1241],[83.6639,29.1248],[83.6632,29.1247],[83.6627,29.1246],[83.6615,29.1238],[83.6614,29.1236],[83.661,29.1232],[83.6604,29.1227],[83.66,29.1226],[83.6594,29.1224],[83.6589,29.1224],[83.6585,29.1222],[83.6579,29.1221],[83.6576,29.1219],[83.6566,29.1215],[83.6559,29.1212],[83.6535,29.119],[83.6534,29.1185],[83.6531,29.1176],[83.6526,29.1147],[83.6527,29.1134],[83.6527,29.1132],[83.6528,29.1127],[83.6529,29.1123],[83.6532,29.1119],[83.6535,29.1114],[83.6539,29.1106],[83.6542,29.1102],[83.6545,29.1096],[83.6545,29.1095],[83.6546,29.1092],[83.6543,29.1079],[83.6539,29.1065],[83.6534,29.1059],[83.6528,29.1052],[83.6524,29.1048],[83.652,29.1044],[83.6517,29.1043],[83.6507,29.1039],[83.6503,29.1039],[83.6479,29.1042],[83.6475,29.1043],[83.6469,29.1045],[83.6462,29.1047],[83.6454,29.1049],[83.6448,29.1052],[83.6435,29.1056],[83.6409,29.1065],[83.6401,29.1068],[83.6395,29.1071],[83.6388,29.1072],[83.6384,29.1073],[83.6373,29.1071],[83.6363,29.107],[83.633,29.107],[83.6323,29.1069],[83.6315,29.1067],[83.6308,29.1065],[83.63,29.1052],[83.6284,29.1031],[83.6272,29.1023],[83.6266,29.102],[83.6253,29.1014],[83.6252,29.1012],[83.6247,29.1009],[83.623,29.0981],[83.6227,29.0978],[83.6221,29.098],[83.6197,29.0982],[83.619,29.0983],[83.6185,29.0984],[83.6178,29.0984],[83.6174,29.0977],[83.6172,29.0965],[83.6171,29.0956],[83.6171,29.095],[83.6189,29.0919],[83.6195,29.0915],[83.6202,29.091],[83.6208,29.0906],[83.6221,29.0898],[83.6229,29.0892],[83.6251,29.0884],[83.6266,29.0868],[83.627,29.0865],[83.6276,29.0863],[83.6279,29.0862],[83.6286,29.0856],[83.6289,29.0851],[83.6292,29.0846],[83.6294,29.084],[83.6295,29.0835],[83.6296,29.0831],[83.6297,29.0828],[83.6299,29.0825],[83.6306,29.0822],[83.631,29.0821],[83.6316,29.0818],[83.6322,29.0814],[83.6331,29.0801],[83.6329,29.0793],[83.6329,29.0792],[83.6327,29.0786],[83.6326,29.0783],[83.6324,29.0771],[83.6322,29.076],[83.6321,29.0752],[83.632,29.0746],[83.6317,29.073],[83.6316,29.0721],[83.6316,29.0715],[83.6317,29.0711],[83.632,29.0701],[83.6325,29.0691],[83.6327,29.0686],[83.6329,29.068],[83.6331,29.0671],[83.6334,29.0664],[83.6335,29.0656],[83.6335,29.0651],[83.6336,29.0629],[83.6331,29.0624],[83.6322,29.0624],[83.6305,29.0625],[83.6297,29.0625],[83.6279,29.0622],[83.6275,29.062],[83.6251,29.0614],[83.6236,29.0609],[83.6229,29.0607],[83.6225,29.0604],[83.6214,29.0587],[83.6213,29.0581],[83.6208,29.0564],[83.6206,29.0561],[83.6204,29.056],[83.6204,29.0555],[83.6202,29.0551],[83.6203,29.0546],[83.6206,29.0525],[83.6208,29.0515],[83.6209,29.051],[83.621,29.05],[83.6211,29.0494],[83.621,29.0488],[83.621,29.0483],[83.6211,29.0465],[83.6211,29.0459],[83.6211,29.0457],[83.6199,29.0437],[83.6171,28.9876],[83.5941,28.9836],[83.581,28.955],[83.5015,28.8771],[83.5083,28.8569],[83.4837,28.8446],[83.4855,28.7828],[83.4125,28.7605],[83.3905,28.763],[83.364,28.7341],[83.3333,28.7381],[83.2789,28.7219],[83.2313,28.7428],[83.2119,28.7319],[83.1886,28.7435],[83.1474,28.747],[83.1545,28.701],[83.1484,28.6821],[83.1295,28.674],[83.1168,28.6307],[83.0992,28.6351],[83.0595,28.62],[83.0448,28.6299],[83.0211,28.6216],[82.9849,28.6307],[82.9593,28.6114],[82.9642,28.5818],[82.9877,28.5698],[82.9758,28.5422],[82.9304,28.567],[82.9182,28.5643],[82.916,28.5275],[82.8903,28.5065],[82.9076,28.4835],[82.8813,28.4762],[82.8883,28.4523],[82.9163,28.4339],[82.9247,28.4011],[82.9523,28.3841],[82.9567,28.36],[82.982,28.3593],[83.0053,28.333],[83.0632,28.3176],[83.099,28.277],[83.0962,28.2569],[83.1371,28.2514],[83.1574,28.2706],[83.1868,28.2706],[83.2538,28.214],[83.2757,28.1875],[83.3083,28.1977],[83.3329,28.1889],[83.3647,28.192],[83.3862,28.1637],[83.4286,28.1258],[83.4757,28.1322],[83.4877,28.1132],[83.5078,28.1258],[83.5565,28.1166],[83.5777,28.0869],[83.5612,28.0434],[83.6069,28.0119],[83.6054,27.9971],[83.5788,27.9741],[83.5239,27.9637],[83.483,27.9803],[83.4644,27.9546],[83.4461,27.9452],[83.4859,27.9225],[83.5251,27.9291],[83.595,27.931],[83.6288,27.9246],[83.6354,27.8999],[83.6863,27.9163],[83.7194,27.9199],[83.7771,27.9031],[83.8097,27.873],[83.843,27.8681],[83.8642,27.8828],[83.8944,27.8859],[83.9278,27.8681],[83.9388,27.8774],[84.0181,27.8513],[84.0268,27.8181],[84.0016,27.7861],[83.9956,27.7506],[83.9495,27.7453],[83.9211,27.7294],[83.8712,27.7345],[83.8231,27.7105],[83.7844,27.7249],[83.7253,27.7098],[83.6848,27.718],[83.703,27.6881],[83.6983,27.6629],[83.7272,27.6723],[83.7468,27.6666],[83.8139,27.6622],[83.7919,27.6065],[83.8161,27.5891],[83.8392,27.584],[83.8527,27.5588],[83.8845,27.5277],[83.8777,27.5104],[83.8993,27.5],[83.8858,27.4638],[83.8976,27.4376],[83.9333,27.4494],[83.9467,27.4656],[83.9432,27.4937],[83.9686,27.506],[83.967,27.523],[83.9241,27.5179],[83.9224,27.5413],[83.95,27.5399],[83.9713,27.5503],[84.0386,27.5385],[84.0478,27.5539],[84.0767,27.5593],[84.1094,27.5515],[84.1374,27.5843],[84.208,27.6382],[84.2936,27.6678],[84.3508,27.7029],[84.3826,27.6814],[84.4301,27.7035],[84.4242,27.7411],[84.4408,27.7439],[84.4596,27.7753],[84.4321,27.7905],[84.4479,27.8229],[84.5149,27.8153],[84.5272,27.8332],[84.5573,27.8356],[84.5609,27.8577],[84.5921,27.8795],[84.6295,27.877],[84.6361,27.8622],[84.6629,27.8488],[84.6635,27.8285],[84.6872,27.8101],[84.734,27.7955],[84.7759,27.824],[84.7659,27.8599],[84.7389,27.891],[84.7353,27.9274],[84.7487,27.9604],[84.7713,27.9671],[84.793,27.998],[84.8135,28.0027],[84.8207,28.0478],[84.8466,28.1165],[84.8716,28.1203],[84.8957,28.1012],[84.9185,28.1025],[84.931,28.1261],[84.9594,28.127],[84.9663,28.1773],[84.9756,28.1889],[84.9643,28.2125],[85.003,28.2522],[85.0292,28.2613],[85.0489,28.3257],[85.0828,28.3457],[85.1102,28.3464],[85.1231,28.3712],[85.1165,28.443],[85.1017,28.4567],[85.1267,28.4877],[85.1589,28.4971],[85.1684,28.532],[85.1877,28.533],[85.1938,28.5689],[85.1759,28.5973],[85.2003,28.6266],[85.1786,28.6448],[85.1595,28.6444],[85.1176,28.6864],[85.0827,28.6714],[85.0608,28.6823],[84.9881,28.6061],[84.9899,28.594],[84.9512,28.5802],[84.9222,28.5952],[84.8675,28.5803],[84.8591,28.5706],[84.7828,28.6094],[84.7274,28.6205],[84.703,28.6344],[84.7072,28.6706],[84.6782,28.6789],[84.6529,28.7143],[84.6285,28.7364],[84.5738,28.7351],[84.5537,28.7504],[84.5169,28.7485],[84.4917,28.7353],[84.4387,28.7694],[84.4475,28.7931],[84.4375,28.8205],[84.4108,28.8536],[84.3769,28.8643],[84.3588,28.8603],[84.3011,28.872],[84.2762,28.8866],[84.2318,28.8922],[84.2226,28.9156],[84.243,29]]]},"properties":{"OBJECTID":4,"PROVINCE":4,"PR_NAME":"Gandaki Pradesh"}},
{"type":"Feature","geometry":{"type":"Polygon","coordinates":[[[83.1474,28.747],[83.1168,28.7431],[83.0825,28.7812],[82.9782,28.803],[82.9513,28.8279],[82.8702,28.834],[82.8491,28.8269],[82.7834,28.824],[82.7694,28.8097],[82.7437,28.8458],[82.714,28.8514],[82.6976,28.8646],[82.6756,28.8525],[82.6505,28.8691],[82.6156,28.8265],[82.622,28.8111],[82.566,28.7657],[82.5769,28.7404],[82.6033,28.7428],[82.6166,28.6887],[82.6018,28.6703],[82.5626,28.6464],[82.4973,28.6627],[82.4877,28.6405],[82.5203,28.6244],[82.5699,28.6095],[82.5819,28.5855],[82.5559,28.5815],[82.5282,28.5581],[82.4617,28.5209],[82.432,28.5244],[82.4094,28.5036],[82.4136,28.4925],[82.3986,28.4625],[82.3757,28.4482],[82.3788,28.4312],[82.3531,28.4238],[82.3655,28.3882],[82.3855,28.3727],[82.3812,28.3516],[82.3651,28.3407],[82.3852,28.2919],[82.4152,28.2537],[82.4384,28.2477],[82.409,28.2209],[82.4035,28.1882],[82.369,28.1897],[82.3394,28.2234],[82.3148,28.223],[82.3032,28.2437],[82.2773,28.2484],[82.235,28.2398],[82.1703,28.2512],[82.1457,28.237],[82.1351,28.2511],[82.1026,28.2589],[82.0714,28.2391],[82.0561,28.242],[82.0248,28.2006],[82.014,28.1551],[81.9645,28.1943],[81.9285,28.2093],[81.9242,28.2244],[81.8667,28.2487],[81.8456,28.2717],[81.8073,28.282],[81.7556,28.3074],[81.7453,28.3189],[81.7685,28.37],[81.7184,28.384],[81.6761,28.4175],[81.6606,28.4151],[81.5591,28.4949],[81.5442,28.495],[81.5133,28.5247],[81.4682,28.5531],[81.4471,28.5542],[81.4186,28.5955],[81.3681,28.6223],[81.3187,28.6363],[81.3201,28.6696],[81.2871,28.6732],[81.2893,28.6479],[81.2504,28.594],[81.1692,28.5232],[81.153,28.5011],[81.0923,28.4568],[81.0871,28.4376],[81.0609,28.4084],[81.0691,28.3944],[81.0911,28.382],[81.2124,28.3605],[81.2363,28.3246],[81.2345,28.2889],[81.2937,28.2228],[81.3224,28.1972],[81.3225,28.1337],[81.3731,28.1423],[81.3769,28.1769],[81.4166,28.1742],[81.4477,28.1612],[81.4517,28.1408],[81.4859,28.1182],[81.4802,28.0824],[81.55,28.0485],[81.6453,27.9937],[81.7002,27.9881],[81.8066,27.9038],[81.823,27.9033],[81.8873,27.8569],[81.928,27.8597],[81.9271,27.8754],[81.9701,27.9288],[82.0729,27.9225],[82.0933,27.8945],[82.1252,27.8649],[82.1563,27.8659],[82.2104,27.8428],[82.2324,27.8206],[82.2547,27.81],[82.3058,27.7725],[82.3691,27.7425],[82.4037,27.7026],[82.4507,27.6785],[82.4752,27.6763],[82.5184,27.6902],[82.5431,27.6856],[82.607,27.7058],[82.6209,27.7022],[82.6685,27.7155],[82.7096,27.7172],[82.7202,27.6873],[82.7151,27.6629],[82.7398,27.6395],[82.7352,27.618],[82.7568,27.5892],[82.7399,27.5463],[82.7514,27.5227],[82.7378,27.5024],[82.8039,27.4964],[82.8349,27.5019],[82.8818,27.4985],[82.9316,27.5009],[82.9562,27.4678],[83.0361,27.4487],[83.1665,27.4575],[83.1899,27.4542],[83.2125,27.4241],[83.2743,27.3834],[83.2677,27.3654],[83.2964,27.3347],[83.3396,27.3326],[83.3762,27.3585],[83.3867,27.3894],[83.4055,27.4019],[83.386,27.4422],[83.4008,27.4489],[83.3909,27.4795],[83.6169,27.4694],[83.8321,27.3701],[83.8648,27.3465],[83.8934,27.3625],[83.9073,27.3895],[83.8752,27.3919],[83.8714,27.4295],[83.8976,27.4376],[83.8858,27.4638],[83.8993,27.5],[83.8777,27.5104],[83.8845,27.5277],[83.8527,27.5588],[83.8392,27.584],[83.8161,27.5891],[83.7919,27.6065],[83.8139,27.6622],[83.7468,27.6666],[83.7272,27.6723],[83.6983,27.6629],[83.703,27.6881],[83.6848,27.718],[83.7253,27.7098],[83.7844,27.7249],[83.8231,27.7105],[83.8712,27.7345],[83.9211,27.7294],[83.9495,27.7453],[83.9956,27.7506],[84.0016,27.7861],[84.0268,27.8181],[84.0181,27.8513],[83.9388,27.8774],[83.9278,27.8681],[83.8944,27.8859],[83.8642,27.8828],[83.843,27.8681],[83.8097,27.873],[83.7771,27.9031],[83.7194,27.9199],[83.6863,27.9163],[83.6354,27.8999],[83.6288,27.9246],[83.595,27.931],[83.5251,27.9291],[83.4859,27.9225],[83.4461,27.9452],[83.4644,27.9546],[83.483,27.9803],[83.5239,27.9637],[83.5788,27.9741],[83.6054,27.9971],[83.6069,28.0119],[83.5612,28.0434],[83.5777,28.0869],[83.5565,28.1166],[83.5078,28.1258],[83.4877,28.1132],[83.4757,28.1322],[83.4286,28.1258],[83.3862,28.1637],[83.3647,28.192],[83.3329,28.1889],[83.3083,28.1977],[83.2757,28.1875],[83.2538,28.214],[83.1868,28.2706],[83.1574,28.2706],[83.1371,28.2514],[83.0962,28.2569],[83.099,28.277],[83.0632,28.3176],[83.0053,28.333],[82.982,28.3593],[82.9567,28.36],[82.9523,28.3841],[82.9247,28.4011],[82.9163,28.4339],[82.8883,28.4523],[82.8813,28.4762],[82.9076,28.4835],[82.8903,28.5065],[82.916,28.5275],[82.9182,28.5643],[82.9304,28.567],[82.9758,28.5422],[82.9877,28.5698],[82.9642,28.5818],[82.9593,28.6114],[82.9849,28.6307],[83.0211,28.6216],[83.0448,28.6299],[83.0595,28.62],[83.0992,28.6351],[83.1168,28.6307],[83.1295,28.674],[83.1484,28.6821],[83.1545,28.701],[83.1474,28.747]]]},"properties":{"OBJECTID":5,"PROVINCE":5,"PR_NAME":"Province No 5"}},
{"type":"Feature","geometry":{"type":"Polygon","coordinates":[[[83.6595,29.1761],[83.6355,29.1584],[83.6129,29.1805],[83.5907,29.1745],[83.5741,29.2025],[83.5381,29.2038],[83.5223,29.2171],[83.5162,29.2538],[83.474,29.2744],[83.4403,29.3091],[83.4486,29.3291],[83.4411,29.3495],[83.4172,29.359],[83.4256,29.3864],[83.4167,29.4203],[83.3735,29.4285],[83.364,29.4518],[83.3444,29.4658],[83.3474,29.4943],[83.3176,29.5089],[83.2841,29.4987],[83.2563,29.5444],[83.2758,29.5545],[83.2629,29.5776],[83.2165,29.5893],[83.22,29.6055],[83.1884,29.6055],[83.144,29.6248],[83.1075,29.6184],[83.084,29.6064],[83.0676,29.626],[83.0454,29.6308],[83.0394,29.6495],[82.9883,29.6682],[82.9591,29.6623],[82.9429,29.6741],[82.9504,29.6916],[82.9287,29.7006],[82.8899,29.6997],[82.8627,29.6846],[82.828,29.6901],[82.7996,29.719],[82.7649,29.7312],[82.7605,29.7601],[82.726,29.7705],[82.6959,29.7611],[82.6884,29.7735],[82.7309,29.8037],[82.7245,29.8387],[82.6992,29.8553],[82.6418,29.8339],[82.6238,29.8473],[82.6426,29.8632],[82.6105,29.8845],[82.5687,29.9324],[82.565,29.9552],[82.5334,29.9712],[82.5012,29.946],[82.4781,29.9737],[82.4341,29.989],[82.3948,30.0246],[82.3649,30.0105],[82.336,30.0469],[82.307,30.0375],[82.246,30.0754],[82.2333,30.065],[82.1681,30.0761],[82.1882,30.1112],[82.1772,30.1215],[82.2074,30.1539],[82.184,30.1609],[82.1891,30.1849],[82.1606,30.1893],[82.1003,30.2394],[82.119,30.2576],[82.1125,30.2755],[82.1273,30.3019],[82.1068,30.3496],[82.0678,30.3554],[82.0579,30.3336],[82.0133,30.3427],[82,30.3207],[81.9415,30.3476],[81.884,30.3608],[81.8696,30.3773],[81.8276,30.3752],[81.8106,30.3873],[81.753,30.3888],[81.6911,30.4255],[81.6363,30.4449],[81.6086,30.4122],[81.5666,30.4299],[81.5524,30.4013],[81.5526,30.3786],[81.5351,30.3718],[81.4896,30.3821],[81.441,30.4186],[81.4101,30.4213],[81.3992,30.3707],[81.4077,30.3375],[81.3984,30.3232],[81.4243,30.3043],[81.4169,30.2752],[81.397,30.2514],[81.3982,30.209],[81.3759,30.1963],[81.3201,30.1519],[81.3112,30.1608],[81.2599,30.1513],[81.2922,30.1123],[81.2892,30.0698],[81.2737,30.0453],[81.2864,30.0376],[81.3837,30.0072],[81.4066,30.0197],[81.4563,30.0024],[81.4718,29.9751],[81.4545,29.9512],[81.4725,29.8898],[81.4945,29.8872],[81.5184,29.9039],[81.5183,29.9224],[81.552,29.9236],[81.582,29.936],[81.6044,29.9302],[81.6481,29.948],[81.6725,29.9407],[81.6892,29.9493],[81.7126,29.9143],[81.7358,29.9078],[81.7874,29.9104],[81.801,29.9017],[81.796,29.8488],[81.7847,29.8376],[81.7822,29.8071],[81.7416,29.7925],[81.7283,29.7332],[81.7168,29.7239],[81.6991,29.6804],[81.7047,29.6372],[81.7404,29.6062],[81.7756,29.6058],[81.7915,29.5967],[81.8008,29.5592],[81.7767,29.508],[81.8054,29.4756],[81.81,29.4563],[81.7912,29.389],[81.7687,29.3904],[81.7515,29.3665],[81.7415,29.3339],[81.705,29.3306],[81.6718,29.3169],[81.6502,29.3212],[81.6459,29.3543],[81.6193,29.3706],[81.575,29.3607],[81.5723,29.3497],[81.5097,29.3146],[81.4856,29.2796],[81.5,29.2388],[81.484,29.2012],[81.5009,29.1517],[81.5264,29.1527],[81.5362,29.1376],[81.5628,29.1249],[81.5117,29.0907],[81.4706,29.0775],[81.4171,29.0171],[81.4133,28.9982],[81.4456,28.9417],[81.4683,28.9288],[81.4846,28.9034],[81.5101,28.8901],[81.5337,28.856],[81.5587,28.7975],[81.5811,28.7807],[81.5831,28.7591],[81.5557,28.75],[81.5172,28.7804],[81.5197,28.8069],[81.5,28.8212],[81.4905,28.8421],[81.4646,28.8539],[81.4651,28.8946],[81.4153,28.9139],[81.3713,28.8914],[81.3494,28.8901],[81.336,28.9082],[81.3049,28.9253],[81.2853,28.9216],[81.2646,28.9023],[81.204,28.9088],[81.1705,28.9214],[81.1224,28.9625],[81.0661,28.9704],[81.0499,28.9779],[81.0218,28.9524],[81.0003,28.9549],[80.988,28.9346],[81.0233,28.9194],[81.0422,28.8886],[81.0756,28.8751],[81.1037,28.845],[81.1509,28.8526],[81.1835,28.825],[81.2017,28.8515],[81.2355,28.8294],[81.2278,28.797],[81.2474,28.7819],[81.249,28.7608],[81.274,28.7273],[81.2688,28.7062],[81.2871,28.6732],[81.3201,28.6696],[81.3187,28.6363],[81.3681,28.6223],[81.4186,28.5955],[81.4471,28.5542],[81.4682,28.5531],[81.5133,28.5247],[81.5442,28.495],[81.5591,28.4949],[81.6606,28.4151],[81.6761,28.4175],[81.7184,28.384],[81.7685,28.37],[81.7453,28.3189],[81.7556,28.3074],[81.8073,28.282],[81.8456,28.2717],[81.8667,28.2487],[81.9242,28.2244],[81.9285,28.2093],[81.9645,28.1943],[82.014,28.1551],[82.0248,28.2006],[82.0561,28.242],[82.0714,28.2391],[82.1026,28.2589],[82.1351,28.2511],[82.1457,28.237],[82.1703,28.2512],[82.235,28.2398],[82.2773,28.2484],[82.3032,28.2437],[82.3148,28.223],[82.3394,28.2234],[82.369,28.1897],[82.4035,28.1882],[82.409,28.2209],[82.4384,28.2477],[82.4152,28.2537],[82.3852,28.2919],[82.3651,28.3407],[82.3812,28.3516],[82.3855,28.3727],[82.3655,28.3882],[82.3531,28.4238],[82.3788,28.4312],[82.3757,28.4482],[82.3986,28.4625],[82.4136,28.4925],[82.4094,28.5036],[82.432,28.5244],[82.4617,28.5209],[82.5282,28.5581],[82.5559,28.5815],[82.5819,28.5855],[82.5699,28.6095],[82.5203,28.6244],[82.4877,28.6405],[82.4973,28.6627],[82.5626,28.6464],[82.6018,28.6703],[82.6166,28.6887],[82.6033,28.7428],[82.5769,28.7404],[82.566,28.7657],[82.622,28.8111],[82.6156,28.8265],[82.6505,28.8691],[82.6756,28.8525],[82.6976,28.8646],[82.714,28.8514],[82.7437,28.8458],[82.7694,28.8097],[82.7834,28.824],[82.8491,28.8269],[82.8702,28.834],[82.9513,28.8279],[82.9782,28.803],[83.0825,28.7812],[83.1168,28.7431],[83.1474,28.747],[83.1886,28.7435],[83.2119,28.7319],[83.2313,28.7428],[83.2789,28.7219],[83.3333,28.7381],[83.364,28.7341],[83.3905,28.763],[83.4125,28.7605],[83.4855,28.7828],[83.4837,28.8446],[83.5083,28.8569],[83.5015,28.8771],[83.581,28.955],[83.5941,28.9836],[83.6171,28.9876],[83.6199,29.0437],[83.6211,29.0457],[83.6211,29.0459],[83.6211,29.0465],[83.621,29.0483],[83.621,29.0488],[83.6211,29.0494],[83.621,29.05],[83.6209,29.051],[83.6208,29.0515],[83.6206,29.0525],[83.6203,29.0546],[83.6202,29.0551],[83.6204,29.0555],[83.6204,29.056],[83.6206,29.0561],[83.6208,29.0564],[83.6213,29.0581],[83.6214,29.0587],[83.6225,29.0604],[83.6229,29.0607],[83.6236,29.0609],[83.6251,29.0614],[83.6275,29.062],[83.6279,29.0622],[83.6297,29.0625],[83.6305,29.0625],[83.6322,29.0624],[83.6331,29.0624],[83.6336,29.0629],[83.6335,29.0651],[83.6335,29.0656],[83.6334,29.0664],[83.6331,29.0671],[83.6329,29.068],[83.6327,29.0686],[83.6325,29.0691],[83.632,29.0701],[83.6317,29.0711],[83.6316,29.0715],[83.6316,29.0721],[83.6317,29.073],[83.632,29.0746],[83.6321,29.0752],[83.6322,29.076],[83.6324,29.0771],[83.6326,29.0783],[83.6327,29.0786],[83.6329,29.0792],[83.6329,29.0793],[83.6331,29.0801],[83.6322,29.0814],[83.6316,29.0818],[83.631,29.0821],[83.6306,29.0822],[83.6299,29.0825],[83.6297,29.0828],[83.6296,29.0831],[83.6295,29.0835],[83.6294,29.084],[83.6292,29.0846],[83.6289,29.0851],[83.6286,29.0856],[83.6279,29.0862],[83.6276,29.0863],[83.627,29.0865],[83.6266,29.0868],[83.6251,29.0884],[83.6229,29.0892],[83.6221,29.0898],[83.6208,29.0906],[83.6202,29.091],[83.6195,29.0915],[83.6189,29.0919],[83.6171,29.095],[83.6171,29.0956],[83.6172,29.0965],[83.6174,29.0977],[83.6178,29.0984],[83.6185,29.0984],[83.619,29.0983],[83.6197,29.0982],[83.6221,29.098],[83.6227,29.0978],[83.623,29.0981],[83.6247,29.1009],[83.6252,29.1012],[83.6253,29.1014],[83.6266,29.102],[83.6272,29.1023],[83.6284,29.1031],[83.63,29.1052],[83.6308,29.1065],[83.6315,29.1067],[83.6323,29.1069],[83.633,29.107],[83.6363,29.107],[83.6373,29.1071],[83.6384,29.1073],[83.6388,29.1072],[83.6395,29.1071],[83.6401,29.1068],[83.6409,29.1065],[83.6435,29.1056],[83.6448,29.1052],[83.6454,29.1049],[83.6462,29.1047],[83.6469,29.1045],[83.6475,29.1043],[83.6479,29.1042],[83.6503,29.1039],[83.6507,29.1039],[83.6517,29.1043],[83.652,29.1044],[83.6524,29.1048],[83.6528,29.1052],[83.6534,29.1059],[83.6539,29.1065],[83.6543,29.1079],[83.6546,29.1092],[83.6545,29.1095],[83.6545,29.1096],[83.6542,29.1102],[83.6539,29.1106],[83.6535,29.1114],[83.6532,29.1119],[83.6529,29.1123],[83.6528,29.1127],[83.6527,29.1132],[83.6527,29.1134],[83.6526,29.1147],[83.6531,29.1176],[83.6534,29.1185],[83.6535,29.119],[83.6559,29.1212],[83.6566,29.1215],[83.6576,29.1219],[83.6579,29.1221],[83.6585,29.1222],[83.6589,29.1224],[83.6594,29.1224],[83.66,29.1226],[83.6604,29.1227],[83.661,29.1232],[83.6614,29.1236],[83.6615,29.1238],[83.6627,29.1246],[83.6632,29.1247],[83.6639,29.1248],[83.6667,29.1241],[83.6673,29.1238],[83.668,29.1237],[83.6683,29.1235],[83.6697,29.1233],[83.6711,29.1232],[83.6727,29.1232],[83.6749,29.1233],[83.6751,29.1233],[83.6754,29.1234],[83.6761,29.1236],[83.6769,29.1237],[83.6776,29.1238],[83.6786,29.1238],[83.6793,29.1237],[83.6797,29.1237],[83.6801,29.1237],[83.6813,29.1235],[83.6818,29.1235],[83.6818,29.124],[83.6813,29.1244],[83.6809,29.125],[83.6809,29.1254],[83.6808,29.1258],[83.6809,29.1267],[83.681,29.1272],[83.6814,29.1281],[83.6814,29.1284],[83.6813,29.1291],[83.6817,29.1301],[83.6817,29.1308],[83.6814,29.1316],[83.681,29.1323],[83.6808,29.1328],[83.6803,29.1333],[83.68,29.1337],[83.6797,29.1342],[83.6793,29.1348],[83.679,29.1352],[83.6779,29.1358],[83.6774,29.1362],[83.677,29.137],[83.6771,29.1375],[83.6776,29.1387],[83.6778,29.1407],[83.6779,29.1414],[83.6779,29.1422],[83.6778,29.143],[83.6777,29.1435],[83.6776,29.1441],[83.6773,29.1453],[83.6777,29.1465],[83.6782,29.1469],[83.6781,29.1485],[83.6779,29.1489],[83.6773,29.1497],[83.6768,29.1502],[83.6756,29.1516],[83.6754,29.152],[83.6748,29.1524],[83.6739,29.1529],[83.6724,29.1535],[83.6706,29.154],[83.6699,29.1542],[83.6695,29.1544],[83.6685,29.1546],[83.6677,29.155],[83.667,29.1552],[83.6667,29.1554],[83.6663,29.1554],[83.666,29.1554],[83.6649,29.1567],[83.6649,29.1575],[83.6649,29.1582],[83.6649,29.1585],[83.6647,29.1588],[83.6645,29.1595],[83.6646,29.1601],[83.6648,29.1605],[83.6649,29.1613],[83.6652,29.1629],[83.6651,29.1635],[83.6648,29.164],[83.6644,29.1644],[83.6643,29.1646],[83.6641,29.1649],[83.6642,29.1651],[83.6646,29.1656],[83.6652,29.1664],[83.6655,29.1667],[83.6656,29.1669],[83.6664,29.1676],[83.6673,29.1683],[83.6682,29.1697],[83.668,29.17],[83.6677,29.1704],[83.6668,29.1712],[83.6666,29.1715],[83.6665,29.1716],[83.6661,29.172],[83.666,29.1722],[83.6656,29.1725],[83.6654,29.1727],[83.665,29.1731],[83.6645,29.1734],[83.6644,29.1735],[83.6642,29.1736],[83.663,29.1743],[83.6623,29.1747],[83.6609,29.1753],[83.6605,29.1754],[83.6595,29.1761]]]},"properties":{"OBJECTID":6,"PROVINCE":6,"PR_NAME":"Karnali Pradesh"}},
{"type":"Feature","geometry":{"type":"Polygon","coordinates":[[[81.2737,30.0453],[81.2392,30.0316],[81.2468,30.0111],[81.2192,30.0073],[81.1968,30.0229],[81.1858,30.0108],[81.1511,30.0116],[81.1256,30.0203],[81.0929,30.0543],[81.1105,30.0862],[81.083,30.1006],[81.0849,30.1481],[81.0461,30.1801],[81.0416,30.2155],[81.0291,30.2398],[80.9847,30.2687],[80.929,30.2643],[80.9291,30.2802],[80.9081,30.3007],[80.8764,30.2985],[80.866,30.3103],[80.829,30.3109],[80.8061,30.3199],[80.7749,30.3621],[80.7362,30.3967],[80.6791,30.4256],[80.6089,30.4669],[80.5673,30.4594],[80.5697,30.4413],[80.5994,30.4482],[80.624,30.4316],[80.6405,30.3887],[80.657,30.3767],[80.6612,30.3536],[80.687,30.3328],[80.7025,30.3344],[80.7604,30.3025],[80.7635,30.2789],[80.7968,30.2391],[80.8732,30.1607],[80.8804,30.1325],[80.8488,30.1171],[80.8034,30.0856],[80.7792,30.055],[80.7627,30.0491],[80.7599,30.028],[80.7403,29.9997],[80.7213,30.0003],[80.6797,29.9589],[80.6503,29.9559],[80.632,29.9652],[80.597,29.9529],[80.5715,29.9086],[80.5744,29.8959],[80.5552,29.8534],[80.509,29.8231],[80.4941,29.7954],[80.4665,29.8022],[80.4096,29.7946],[80.3881,29.7514],[80.3677,29.729],[80.3915,29.6655],[80.4182,29.6505],[80.4099,29.5959],[80.3807,29.5615],[80.3506,29.5553],[80.3582,29.5346],[80.343,29.51],[80.2977,29.4879],[80.2897,29.472],[80.3042,29.4531],[80.2477,29.4467],[80.2467,29.4082],[80.2734,29.3952],[80.2818,29.3462],[80.3202,29.3039],[80.306,29.2853],[80.2991,29.2055],[80.2427,29.2042],[80.2596,29.1873],[80.26,29.1658],[80.2742,29.1456],[80.2369,29.1191],[80.2114,29.1218],[80.1863,29.1373],[80.1461,29.103],[80.1302,29.061],[80.1285,29.006],[80.1196,28.9817],[80.0977,28.9753],[80.0601,28.9164],[80.0664,28.8373],[80.0767,28.8243],[80.1198,28.8288],[80.1726,28.7823],[80.2177,28.7553],[80.2523,28.7578],[80.2579,28.7293],[80.2797,28.7097],[80.3186,28.7001],[80.3276,28.6663],[80.378,28.6283],[80.4164,28.6391],[80.462,28.6218],[80.4727,28.5845],[80.4854,28.582],[80.5245,28.5528],[80.5234,28.5767],[80.5052,28.6652],[80.5415,28.6906],[80.5921,28.6797],[80.5819,28.6612],[80.6133,28.6393],[80.6529,28.6339],[80.6693,28.6418],[80.6791,28.6043],[80.7163,28.5678],[80.7401,28.5742],[80.7697,28.5655],[80.7863,28.5292],[80.8172,28.5206],[80.857,28.4971],[80.8776,28.5097],[80.9103,28.4975],[80.9074,28.4657],[80.9465,28.4547],[80.9808,28.4343],[81.0015,28.4539],[81.0355,28.4279],[81.0691,28.3944],[81.0609,28.4084],[81.0871,28.4376],[81.0923,28.4568],[81.153,28.5011],[81.1692,28.5232],[81.2504,28.594],[81.2893,28.6479],[81.2871,28.6732],[81.2688,28.7062],[81.274,28.7273],[81.249,28.7608],[81.2474,28.7819],[81.2278,28.797],[81.2355,28.8294],[81.2017,28.8515],[81.1835,28.825],[81.1509,28.8526],[81.1037,28.845],[81.0756,28.8751],[81.0422,28.8886],[81.0233,28.9194],[80.988,28.9346],[81.0003,28.9549],[81.0218,28.9524],[81.0499,28.9779],[81.0661,28.9704],[81.1224,28.9625],[81.1705,28.9214],[81.204,28.9088],[81.2646,28.9023],[81.2853,28.9216],[81.3049,28.9253],[81.336,28.9082],[81.3494,28.8901],[81.3713,28.8914],[81.4153,28.9139],[81.4651,28.8946],[81.4646,28.8539],[81.4905,28.8421],[81.5,28.8212],[81.5197,28.8069],[81.5172,28.7804],[81.5557,28.75],[81.5831,28.7591],[81.5811,28.7807],[81.5587,28.7975],[81.5337,28.856],[81.5101,28.8901],[81.4846,28.9034],[81.4683,28.9288],[81.4456,28.9417],[81.4133,28.9982],[81.4171,29.0171],[81.4706,29.0775],[81.5117,29.0907],[81.5628,29.1249],[81.5362,29.1376],[81.5264,29.1527],[81.5009,29.1517],[81.484,29.2012],[81.5,29.2388],[81.4856,29.2796],[81.5097,29.3146],[81.5723,29.3497],[81.575,29.3607],[81.6193,29.3706],[81.6459,29.3543],[81.6502,29.3212],[81.6718,29.3169],[81.705,29.3306],[81.7415,29.3339],[81.7515,29.3665],[81.7687,29.3904],[81.7912,29.389],[81.81,29.4563],[81.8054,29.4756],[81.7767,29.508],[81.8008,29.5592],[81.7915,29.5967],[81.7756,29.6058],[81.7404,29.6062],[81.7047,29.6372],[81.6991,29.6804],[81.7168,29.7239],[81.7283,29.7332],[81.7416,29.7925],[81.7822,29.8071],[81.7847,29.8376],[81.796,29.8488],[81.801,29.9017],[81.7874,29.9104],[81.7358,29.9078],[81.7126,29.9143],[81.6892,29.9493],[81.6725,29.9407],[81.6481,29.948],[81.6044,29.9302],[81.582,29.936],[81.552,29.9236],[81.5183,29.9224],[81.5184,29.9039],[81.4945,29.8872],[81.4725,29.8898],[81.4545,29.9512],[81.4718,29.9751],[81.4563,30.0024],[81.4066,30.0197],[81.3837,30.0072],[81.2864,30.0376],[81.2737,30.0453]]]},"properties":{"OBJECTID":7,"PROVINCE":7,"PR_NAME":"Sudurpashchim Pradesh"}}
]}